[{"OBJECT_NAME":"STARLINK-36265","OBJECT_ID":"2025-304S","EPOCH":"2026-03-09T16:54:06.355008","MEAN_MOTION":14.98297439,"ECCENTRICITY":0.00044471,"INCLINATION":70.002,"RA_OF_ASC_NODE":174.5517,"ARG_OF_PERICENTER":251.031,"MEAN_ANOMALY":109.0367,"EPHEMERIS_TYPE":0,"CLASSIFICATION_TYPE":"U","NORAD_CAT_ID":67208,"ELEMENT_SET_NO":999,"REV_AT_EPOCH":1388,"BSTAR":-0.0010792203,"MEAN_MOTION_DOT":-0.00012937,"MEAN_MOTION_DDOT":0},{"OBJECT_NAME":"SL-24 DEB","OBJECT_ID":"2007-028C","EPOCH":"2026-03-09T19:18:34.668288","MEAN_MOTION":13.26386106,"ECCENTRICITY":0.08142909,"INCLINATION":64.528,"RA_OF_ASC_NODE":235.2459,"ARG_OF_PERICENTER":100.7313,"MEAN_ANOMALY":268.6376,"EPHEMERIS_TYPE":0,"CLASSIFICATION_TYPE":"U","NORAD_CAT_ID":31791,"ELEMENT_SET_NO":999,"REV_AT_EPOCH":90482,"BSTAR":0.00011847102,"MEAN_MOTION_DOT":2.38e-6,"MEAN_MOTION_DDOT":0}]
